CCSDS_OMM_VERS = 2.0
CREATION_DATE  = 
ORIGINATOR     = 

OBJECT_NAME    = TITAN 4B R/B
OBJECT_ID      = 2000-047B
CENTER_NAME    = EARTH
REF_FRAME      = TEME
TIME_SYSTEM    = UTC
MEAN_ELEMENT_THEORY = SGP/SGP4

EPOCH          = 2025-11-13T16:53:43.884096
MEAN_MOTION    = 15.08488667
ECCENTRICITY   = .0041545
INCLINATION    = 67.9917
RA_OF_ASC_NODE = 6.3847
ARG_OF_PERICENTER = 178.5437
MEAN_ANOMALY   = 181.5841

EPHEMERIS_TYPE = 0
CLASSIFICATION_TYPE = U
NORAD_CAT_ID   = 26474
ELEMENT_SET_NO = 999
REV_AT_EPOCH   = 37541
BSTAR          = .55624E-3
MEAN_MOTION_DOT = .8745E-4
MEAN_MOTION_DDOT = 0

CCSDS_OMM_VERS = 2.0
CREATION_DATE  = 
ORIGINATOR     = 

OBJECT_NAME    = ENVISAT
OBJECT_ID      = 2002-009A
CENTER_NAME    = EARTH
REF_FRAME      = TEME
TIME_SYSTEM    = UTC
MEAN_ELEMENT_THEORY = SGP/SGP4

EPOCH          = 2025-11-13T20:00:33.914304
MEAN_MOTION    = 14.38983934
ECCENTRICITY   = .0001298
INCLINATION    = 98.3553
RA_OF_ASC_NODE = 269.3141
ARG_OF_PERICENTER = 82.4348
MEAN_ANOMALY   = 303.4102

EPHEMERIS_TYPE = 0
CLASSIFICATION_TYPE = U
NORAD_CAT_ID   = 27386
ELEMENT_SET_NO = 999
REV_AT_EPOCH   = 24251
BSTAR          = .14552E-3
MEAN_MOTION_DOT = .406E-5
MEAN_MOTION_DDOT = 0

CCSDS_OMM_VERS = 2.0
CREATION_DATE  = 
ORIGINATOR     = 

OBJECT_NAME    = IDEFIX & ARIANE 42P R/B
OBJECT_ID      = 2002-021B
CENTER_NAME    = EARTH
REF_FRAME      = TEME
TIME_SYSTEM    = UTC
MEAN_ELEMENT_THEORY = SGP/SGP4

EPOCH          = 2025-11-13T18:35:07.401408
MEAN_MOTION    = 14.30920007
ECCENTRICITY   = .0011932
INCLINATION    = 98.5740
RA_OF_ASC_NODE = 252.8480
ARG_OF_PERICENTER = 163.4755
MEAN_ANOMALY   = 196.6819

EPHEMERIS_TYPE = 0
CLASSIFICATION_TYPE = U
NORAD_CAT_ID   = 27422
ELEMENT_SET_NO = 999
REV_AT_EPOCH   = 22744
BSTAR          = .33416E-3
MEAN_MOTION_DOT = .835E-5
MEAN_MOTION_DDOT = 0

CCSDS_OMM_VERS = 2.0
CREATION_DATE  = 
ORIGINATOR     = 

OBJECT_NAME    = AQUA
OBJECT_ID      = 2002-022A
CENTER_NAME    = EARTH
REF_FRAME      = TEME
TIME_SYSTEM    = UTC
MEAN_ELEMENT_THEORY = SGP/SGP4

EPOCH          = 2025-11-13T20:45:59.880960
MEAN_MOTION    = 14.61711246
ECCENTRICITY   = .0000792
INCLINATION    = 98.3990
RA_OF_ASC_NODE = 278.2839
ARG_OF_PERICENTER = 56.4796
MEAN_ANOMALY   = 332.0031

EPHEMERIS_TYPE = 0
CLASSIFICATION_TYPE = U
NORAD_CAT_ID   = 27424
ELEMENT_SET_NO = 999
REV_AT_EPOCH   = 25181
BSTAR          = .66281E-3
MEAN_MOTION_DOT = .3254E-4
MEAN_MOTION_DDOT = 0

CCSDS_OMM_VERS = 2.0
CREATION_DATE  = 
ORIGINATOR     = 

OBJECT_NAME    = CZ-4B R/B
OBJECT_ID      = 2002-024C
CENTER_NAME    = EARTH
REF_FRAME      = TEME
TIME_SYSTEM    = UTC
MEAN_ELEMENT_THEORY = SGP/SGP4

EPOCH          = 2025-11-13T10:08:08.778048
MEAN_MOTION    = 14.14519127
ECCENTRICITY   = .0050004
INCLINATION    = 98.9045
RA_OF_ASC_NODE = 6.2899
ARG_OF_PERICENTER = 354.3690
MEAN_ANOMALY   = 16.6021

EPHEMERIS_TYPE = 0
CLASSIFICATION_TYPE = U
NORAD_CAT_ID   = 27432
ELEMENT_SET_NO = 999
REV_AT_EPOCH   = 21280
BSTAR          = .1078E-3
MEAN_MOTION_DOT = .164E-5
MEAN_MOTION_DDOT = 0

CCSDS_OMM_VERS = 2.0
CREATION_DATE  = 
ORIGINATOR     = 

OBJECT_NAME    = MIDORI II (ADEOS-II)
OBJECT_ID      = 2002-056A
CENTER_NAME    = EARTH
REF_FRAME      = TEME
TIME_SYSTEM    = UTC
MEAN_ELEMENT_THEORY = SGP/SGP4

EPOCH          = 2025-11-13T20:55:02.263008
MEAN_MOTION    = 14.29177476
ECCENTRICITY   = .0001303
INCLINATION    = 98.7590
RA_OF_ASC_NODE = 270.6836
ARG_OF_PERICENTER = 32.7567
MEAN_ANOMALY   = 327.3695

EPHEMERIS_TYPE = 0
CLASSIFICATION_TYPE = U
NORAD_CAT_ID   = 27597
ELEMENT_SET_NO = 999
REV_AT_EPOCH   = 19375
BSTAR          = .32461E-3
MEAN_MOTION_DOT = .779E-5
MEAN_MOTION_DDOT = 0

CCSDS_OMM_VERS = 2.0
CREATION_DATE  = 
ORIGINATOR     = 

OBJECT_NAME    = H-2A R/B
OBJECT_ID      = 2002-056E
CENTER_NAME    = EARTH
REF_FRAME      = TEME
TIME_SYSTEM    = UTC
MEAN_ELEMENT_THEORY = SGP/SGP4

EPOCH          = 2025-11-13T20:22:28.015968
MEAN_MOTION    = 14.33646069
ECCENTRICITY   = .0070903
INCLINATION    = 98.3021
RA_OF_ASC_NODE = 277.7633
ARG_OF_PERICENTER = 145.9560
MEAN_ANOMALY   = 235.4767

EPHEMERIS_TYPE = 0
CLASSIFICATION_TYPE = U
NORAD_CAT_ID   = 27601
ELEMENT_SET_NO = 999
REV_AT_EPOCH   = 19751
BSTAR          = .2751E-3
MEAN_MOTION_DOT = .743E-5
MEAN_MOTION_DDOT = 0

CCSDS_OMM_VERS = 2.0
CREATION_DATE  = 
ORIGINATOR     = 

OBJECT_NAME    = CZ-4B R/B
OBJECT_ID      = 2003-049C
CENTER_NAME    = EARTH
REF_FRAME      = TEME
TIME_SYSTEM    = UTC
MEAN_ELEMENT_THEORY = SGP/SGP4

EPOCH          = 2025-11-13T10:26:57.390144
MEAN_MOTION    = 14.54870224
ECCENTRICITY   = .0047377
INCLINATION    = 98.6770
RA_OF_ASC_NODE = 302.8957
ARG_OF_PERICENTER = 225.6169
MEAN_ANOMALY   = 134.1142

EPHEMERIS_TYPE = 0
CLASSIFICATION_TYPE = U
NORAD_CAT_ID   = 28059
ELEMENT_SET_NO = 999
REV_AT_EPOCH   = 16969
BSTAR          = .24814E-3
MEAN_MOTION_DOT = .103E-4
MEAN_MOTION_DDOT = 0

CCSDS_OMM_VERS = 2.0
CREATION_DATE  = 
ORIGINATOR     = 

OBJECT_NAME    = CZ-2C R/B
OBJECT_ID      = 2004-012C
CENTER_NAME    = EARTH
REF_FRAME      = TEME
TIME_SYSTEM    = UTC
MEAN_ELEMENT_THEORY = SGP/SGP4

EPOCH          = 2025-11-13T02:56:05.408448
MEAN_MOTION    = 15.52916406
ECCENTRICITY   = .00191881
INCLINATION    = 97.7482
RA_OF_ASC_NODE = 7.3518
ARG_OF_PERICENTER = 22.4017
MEAN_ANOMALY   = 337.8068

EPHEMERIS_TYPE = 0
CLASSIFICATION_TYPE = U
NORAD_CAT_ID   = 28222
ELEMENT_SET_NO = 999
REV_AT_EPOCH   = 18612
BSTAR          = .82390715E-3
MEAN_MOTION_DOT = .51769E-3
MEAN_MOTION_DDOT = 0

CCSDS_OMM_VERS = 2.0
CREATION_DATE  = 
ORIGINATOR     = 

OBJECT_NAME    = SL-16 R/B
OBJECT_ID      = 2004-021B
CENTER_NAME    = EARTH
REF_FRAME      = TEME
TIME_SYSTEM    = UTC
MEAN_ELEMENT_THEORY = SGP/SGP4

EPOCH          = 2025-11-13T16:47:36.006720
MEAN_MOTION    = 14.14573215
ECCENTRICITY   = .0006595
INCLINATION    = 70.9979
RA_OF_ASC_NODE = 115.9043
ARG_OF_PERICENTER = 229.9890
MEAN_ANOMALY   = 130.0654

EPHEMERIS_TYPE = 0
CLASSIFICATION_TYPE = U
NORAD_CAT_ID   = 28353
ELEMENT_SET_NO = 999
REV_AT_EPOCH   = 10643
BSTAR          = .21059E-3
MEAN_MOTION_DOT = .357E-5
MEAN_MOTION_DDOT = 0

CCSDS_OMM_VERS = 2.0
CREATION_DATE  = 
ORIGINATOR     = 

OBJECT_NAME    = CZ-4B R/B
OBJECT_ID      = 2004-035C
CENTER_NAME    = EARTH
REF_FRAME      = TEME
TIME_SYSTEM    = UTC
MEAN_ELEMENT_THEORY = SGP/SGP4

EPOCH          = 2025-11-13T12:46:34.962240
MEAN_MOTION    = 15.26720469
ECCENTRICITY   = .0034499
INCLINATION    = 97.3653
RA_OF_ASC_NODE = 348.2742
ARG_OF_PERICENTER = 23.2844
MEAN_ANOMALY   = 336.9949

EPHEMERIS_TYPE = 0
CLASSIFICATION_TYPE = U
NORAD_CAT_ID   = 28415
ELEMENT_SET_NO = 999
REV_AT_EPOCH   = 16217
BSTAR          = .7141E-3
MEAN_MOTION_DOT = .19046E-3
MEAN_MOTION_DDOT = 0

CCSDS_OMM_VERS = 2.0
CREATION_DATE  = 
ORIGINATOR     = 

OBJECT_NAME    = CZ-2C R/B
OBJECT_ID      = 2004-046B
CENTER_NAME    = EARTH
REF_FRAME      = TEME
TIME_SYSTEM    = UTC
MEAN_ELEMENT_THEORY = SGP/SGP4

EPOCH          = 2025-11-13T17:14:42.271584
MEAN_MOTION    = 14.26922207
ECCENTRICITY   = .0140316
INCLINATION    = 98.1961
RA_OF_ASC_NODE = 234.9046
ARG_OF_PERICENTER = 137.4479
MEAN_ANOMALY   = 223.7679

EPHEMERIS_TYPE = 0
CLASSIFICATION_TYPE = U
NORAD_CAT_ID   = 28480
ELEMENT_SET_NO = 999
REV_AT_EPOCH   = 9196
BSTAR          = .18459E-3
MEAN_MOTION_DOT = .458E-5
MEAN_MOTION_DDOT = 0

